IRIDIUM 39              
1 25042U 97069D   25287.91959905  .00000744  00000+0  18918-3 0  9999
2 25042  86.3952 159.8526 0015610 267.2111  92.7307 14.49386162466308
IRIDIUM 38              
1 25043U 97069E   25287.70252922  .00000579  00000+0  18423-3 0  9999
2 25043  86.4026 182.9185 0004082  75.7633 284.4019 14.38236631463133
IRIDIUM 42              
1 25077U 97077A   25287.43777288  .00000635  00000+0  20996-3 0  9993
2 25077  86.4032 189.3383 0002958  84.9943 275.1591 14.36464678458312
IRIDIUM 44              
1 25078U 97077B   25287.41761455  .00000566  00000+0  17241-3 0  9993
2 25078  86.4018 170.9807 0002910  44.5538 315.5895 14.40358332460867
IRIDIUM 45              
1 25104U 97082A   25287.91461310  .00025562  00000+0  80723-3 0  9999
2 25104  86.3605 349.5706 0104189 240.7155 118.3649 15.27456132470282
IRIDIUM 24              
1 25105U 97082B   25287.58356213  .00000753  00000+0  22220-3 0  9991
2 25105  86.3949  29.6330 0012876  51.0187 309.2158 14.42241817460421
IRIDIUM 51              
1 25262U 98018A   25287.47681295  .00065038  00000+0  10078-2 0  9998
2 25262  86.3823 356.3697 0069563 148.2364 212.3122 15.50966907465438
IRIDIUM 57              
1 25273U 98019B   25287.89150024  .00000533  00000+0  17697-3 0  9992
2 25273  86.3905  95.0787 0002208  87.8564 272.2886 14.35980209441968
